OBJECT_NAME,OBJECT_ID,EPOCH,MEAN_MOTION,ECCENTRICITY,INCLINATION,RA_OF_ASC_NODE,ARG_OF_PERICENTER,MEAN_ANOMALY,EPHEMERIS_TYPE,CLASSIFICATION_TYPE,NORAD_CAT_ID,ELEMENT_SET_NO,REV_AT_EPOCH,BSTAR,MEAN_MOTION_DOT,MEAN_MOTION_DDOT
BEIDOU-3S IGSO-1S (C31),2015-019A,2026-06-27T19:18:18.518400,1.00249344,.00390983,49.1741,295.3331,191.8080,168.8013,0,U,40549,999,4118,0,-.163E-5,0
GPS BIIF-10 (PRN 08),2015-033A,2026-06-27T16:35:52.506816,2.00555813,.011514,53.9742,266.6532,30.2326,330.4797,0,U,40730,999,8020,0,-.21E-6,0
BEIDOU-3S M2S (C58),2015-037A,2026-06-28T14:22:59.380032,1.86232293,.00085671,54.8599,301.6527,258.3318,101.5721,0,U,40748,999,7433,0,-.84E-6,0
BEIDOU-3S M1S (C57),2015-037B,2026-06-27T04:40:16.991040,1.86255050,.00032195,54.8580,301.6893,62.4123,297.6156,0,U,40749,999,7431,0,-.96E-6,0
GSAT0206 (GALILEO 10),2015-045B,2026-06-28T14:27:26.505504,1.70473821,.00018243,54.9424,221.2890,328.9873,31.0992,0,U,40890,999,6723,0,.7E-6,0
BEIDOU-3S IGSO-2S (C56),2015-053A,2026-06-28T15:40:14.064384,1.00257564,.00656213,49.2025,258.6448,193.0709,154.6027,0,U,40938,999,3946,0,-.101E-5,0
GPS BIIF-11 (PRN 10),2015-062A,2026-06-26T18:00:06.016032,2.00567519,.01121888,56.9659,30.4428,230.9710,128.0791,0,U,41019,999,7802,0,-.8E-6,0
GSAT-15 (GAGAN/PRN 139),2015-065A,2026-06-28T13:37:38.754624,1.00270523,.00045938,0.0468,262.9281,175.1638,136.4962,0,U,41028,999,3891,0,-.246E-5,0
GSAT0209 (GALILEO 12),2015-079A,2026-06-28T04:24:50.829696,1.70473803,.00050857,55.8335,100.9603,347.1897,12.7761,0,U,41174,999,6496,0,-.33E-6,0
GSAT0208 (GALILEO 11),2015-079B,2026-06-26T01:23:22.771680,1.70473681,.0004595,55.8311,101.0154,354.0123,5.9555,0,U,41175,999,6534,0,-.39E-6,0
IRNSS-1E,2016-003A,2026-06-25T14:21:38.812032,1.00274592,.00190622,33.2517,59.6282,179.1130,2.2203,0,U,41241,999,3816,0,-.319E-5,0
GPS BIIF-12 (PRN 32),2016-007A,2026-06-28T08:06:03.176928,2.00551379,.00956049,55.5304,89.0177,247.1405,111.8582,0,U,41328,999,7606,0,-.53E-6,0
COSMOS 2514 (751),2016-008A,2026-06-28T13:08:15.682272,2.13102750,.00117031,65.0143,312.6168,199.2051,160.7421,0,U,41330,999,8086,0,-.74E-6,0
BEIDOU-2 IGSO-6 (C13),2016-021A,2026-06-26T02:38:38.671584,1.00258926,.0057558,60.2385,37.9495,231.0163,137.2672,0,U,41434,999,3757,0,-.145E-5,0
IRNSS-1G,2016-027A,2026-06-28T13:04:32.745216,1.00281899,.00058017,5.2228,97.2120,4.6313,140.3313,0,U,41469,999,3729,0,-.327E-5,0
GSAT0211 (GALILEO 14),2016-030A,2026-06-27T22:35:47.691744,1.70474008,.00031164,55.0927,221.3989,320.4926,39.5816,0,U,41549,999,6285,0,.69E-6,0
GSAT0210 (GALILEO 13),2016-030B,2026-06-27T00:36:53.275104,1.70473957,.00077922,55.0912,221.4221,256.4220,103.5859,0,U,41550,999,6283,0,.65E-6,0
BEIDOU-2 G7 (C03),2016-037A,2026-06-28T14:41:41.343648,1.00271617,.00068478,1.7482,69.4178,2.2917,175.9754,0,U,41586,999,700,0,-.343E-5,0
EUTELSAT 117 WEST B (WAAS/PRN 131),2016-038B,2026-06-28T11:19:38.696160,1.00270464,.00002905,0.0104,156.3211,94.6955,78.4794,0,U,41589,999,3677,0,0,0
GSAT0207 (GALILEO 15),2016-069A,2026-06-26T17:13:02.065728,1.70473700,.00050068,55.5042,100.8225,333.0982,26.8500,0,U,41859,999,5956,0,-.38E-6,0
GSAT0212 (GALILEO 16),2016-069B,2026-06-27T03:46:41.185632,1.70473636,.00043882,55.5020,100.8054,12.7020,347.2841,0,U,41860,999,5982,0,-.37E-6,0
GSAT0213 (GALILEO 17),2016-069C,2026-06-28T02:40:06.685536,1.70474290,.00045371,55.5047,100.7870,315.9585,43.9839,0,U,41861,999,5970,0,-.34E-6,0
GSAT0214 (GALILEO 18),2016-069D,2026-06-28T06:10:43.038048,1.70473610,.00035484,55.5035,100.7756,328.2164,31.7414,0,U,41862,999,5983,0,-.33E-6,0
SES-15 (WAAS/PRN 133),2017-026A,2026-06-28T13:33:25.143840,1.00268274,.000078,0.0212,336.1461,103.8028,270.8967,0,U,42709,999,754,0,.72E-6,0
QZS-2 (QZSS/PRN 194),2017-028A,2026-06-28T11:28:04.382400,1.00281030,.07588829,39.4102,242.9880,269.3858,78.2980,0,U,42738,999,773,0,-.124E-5,0
QZS-3 (QZSS/PRN 199),2017-048A,2026-06-28T13:03:47.817216,1.00271205,.00023091,0.0709,144.5122,309.9822,145.1402,0,U,42917,999,3237,0,-.336E-5,0
COSMOS 2522 (752),2017-055A,2026-06-24T03:53:00.968064,2.13101107,.00084097,64.0776,191.6387,235.5259,124.4452,0,U,42939,999,6812,0,.104E-5,0
QZS-4 (QZSS/PRN 195),2017-062A,2026-06-28T07:56:28.959072,1.00296396,.07466616,40.1015,343.3436,268.2976,281.9139,0,U,42965,999,3191,0,-.344E-5,0
BEIDOU-3 M1 (C19),2017-069A,2026-06-26T06:16:16.154976,1.86231403,.0009932,56.7000,62.7851,326.5159,33.4640,0,U,43001,999,5877,0,-.86E-6,0
BEIDOU-3 M2 (C20),2017-069B,2026-06-28T08:20:59.354016,1.86230801,.00088843,56.7014,62.7523,352.9823,7.0583,0,U,43002,999,5880,0,-.66E-6,0
GSAT0215 (GALILEO 19),2017-079A,2026-06-26T09:37:16.356864,1.70474651,.00035075,55.0715,221.2530,265.2827,94.7697,0,U,43055,999,5314,0,.63E-6,0
